STARLINK-33688          
1 63483U 25070Z   26086.46874803  .00015432  00000+0  56883-3 0  9997
2 63483  43.0036 159.5353 0001717 289.6068  70.4598 15.27598479 55693
STARLINK-33700          
1 63484U 25070AA  26086.51485965  .00019775  00000+0  72570-3 0  9996
2 63484  43.0058 159.0186 0002339 268.0531  92.0053 15.27601332 55705
STARLINK-33687          
1 63485U 25070AB  26086.50329117  .00023155  00000+0  84818-3 0  9997
2 63485  43.0005 158.8906 0001739 271.8826  88.1826 15.27585351 55703
STARLINK-33716          
1 63486U 25070AC  26086.57382235  .00015018  00000+0  55403-3 0  9992
2 63486  43.0001 158.6136 0001384 238.6770 121.3946 15.27587988 55710
STARLINK-33754          
1 63487U 25070AD  26086.59437975  .00015663  00000+0  57715-3 0  9991
2 63487  43.0040 158.7591 0001540 287.6540  72.4143 15.27600522 55718
STARLINK-33828          
1 63493U 25071A   26086.61244265  .00020899  00000+0  71568-3 0  9999
2 63493  53.1590  58.8404 0001095  95.9757 264.1369 15.30202747 55468
STARLINK-33819          
1 63494U 25071B   26086.87686698  .00032956  00000+0  11192-2 0  9991
2 63494  53.1588  57.6366 0002133 102.7354 257.3885 15.30218443 55506
STARLINK-33845          
1 63495U 25071C   26086.33482736  .00020547  00000+0  70306-3 0  9996
2 63495  53.1594  57.8088 0001412  68.1146 292.0005 15.30240546 55453
STARLINK-33829          
1 63496U 25071D   26086.61191526  .00028061  00000+0  95585-3 0  9997
2 63496  53.1588  56.6944 0001184  81.3906 278.7229 15.30204238 55459
STARLINK-33815          
1 63497U 25071E   26086.62985473  .00019480  00000+0  66808-3 0  9992
2 63497  53.1599  56.8029 0001661  93.0434 267.0756 15.30201308 55512
STARLINK-33833          
1 63498U 25071F   26086.62141041  .00014719  00000+0  50796-3 0  9997
2 63498  53.1596  56.7501 0001589  88.7886 271.3297 15.30208546 55514
STARLINK-33534          
1 63499U 25071G   26086.61718976  .00025184  00000+0  85936-3 0  9996
2 63499  53.1598  56.7248 0001409  88.5866 271.5296 15.30205880 55498
STARLINK-33838          
1 63500U 25071H   26086.20841573  .00016861  00000+0  57997-3 0  9992
2 63500  53.1591  58.4400 0001254  95.8552 264.2591 15.30207215 55248
STARLINK-33837          
1 63501U 25071J   26086.63618787  .00024368  00000+0  83208-3 0  9994
2 63501  53.1605  56.8408 0002179  96.0358 264.0891 15.30202899 55456
STARLINK-33818          
1 63502U 25071K   26086.13992933  .00044207  00000+0  14956-2 0  9995
2 63502  53.1590  58.7221 0001020 127.3610 232.7484 15.30204886 55444
STARLINK-33583          
1 63503U 25071L   26086.33441019  .00035991  00000+0  12212-2 0  9995
2 63503  53.1601  60.6409 0001301  89.1046 271.0104 15.30206271 55443
