[{"OBJECT_NAME":"STARLINK-33688","OBJECT_ID":"2025-070Z","EPOCH":"2026-03-27T11:14:59.829792","MEAN_MOTION":15.27598479,"ECCENTRICITY":0.0001717,"INCLINATION":43.0036,"RA_OF_ASC_NODE":159.5353,"ARG_OF_PERICENTER":289.6068,"MEAN_ANOMALY":70.4598,"EPHEMERIS_TYPE":0,"CLASSIFICATION_TYPE":"U","NORAD_CAT_ID":63483,"ELEMENT_SET_NO":999,"REV_AT_EPOCH":5569,"BSTAR":0.00056883,"MEAN_MOTION_DOT":0.00015432,"MEAN_MOTION_DDOT":0},{"OBJECT_NAME":"STARLINK-33700","OBJECT_ID":"2025-070AA","EPOCH":"2026-03-27T12:21:23.873760","MEAN_MOTION":15.27601332,"ECCENTRICITY":0.0002339,"INCLINATION":43.0058,"RA_OF_ASC_NODE":159.0186,"ARG_OF_PERICENTER":268.0531,"MEAN_ANOMALY":92.0053,"EPHEMERIS_TYPE":0,"CLASSIFICATION_TYPE":"U","NORAD_CAT_ID":63484,"ELEMENT_SET_NO":999,"REV_AT_EPOCH":5570,"BSTAR":0.0007257,"MEAN_MOTION_DOT":0.00019775,"MEAN_MOTION_DDOT":0},{"OBJECT_NAME":"STARLINK-33687","OBJECT_ID":"2025-070AB","EPOCH":"2026-03-27T12:04:44.357088","MEAN_MOTION":15.27585351,"ECCENTRICITY":0.0001739,"INCLINATION":43.0005,"RA_OF_ASC_NODE":158.8906,"ARG_OF_PERICENTER":271.8826,"MEAN_ANOMALY":88.1826,"EPHEMERIS_TYPE":0,"CLASSIFICATION_TYPE":"U","NORAD_CAT_ID":63485,"ELEMENT_SET_NO":999,"REV_AT_EPOCH":5570,"BSTAR":0.00084818,"MEAN_MOTION_DOT":0.00023155,"MEAN_MOTION_DDOT":0},{"OBJECT_NAME":"STARLINK-33716","OBJECT_ID":"2025-070AC","EPOCH":"2026-03-27T13:46:18.251040","MEAN_MOTION":15.27587988,"ECCENTRICITY":0.0001384,"INCLINATION":43.0001,"RA_OF_ASC_NODE":158.6136,"ARG_OF_PERICENTER":238.677,"MEAN_ANOMALY":121.3946,"EPHEMERIS_TYPE":0,"CLASSIFICATION_TYPE":"U","NORAD_CAT_ID":63486,"ELEMENT_SET_NO":999,"REV_AT_EPOCH":5571,"BSTAR":0.00055403,"MEAN_MOTION_DOT":0.00015018,"MEAN_MOTION_DDOT":0},{"OBJECT_NAME":"STARLINK-33754","OBJECT_ID":"2025-070AD","EPOCH":"2026-03-27T14:15:54.410400","MEAN_MOTION":15.27600522,"ECCENTRICITY":0.000154,"INCLINATION":43.004,"RA_OF_ASC_NODE":158.7591,"ARG_OF_PERICENTER":287.654,"MEAN_ANOMALY":72.4143,"EPHEMERIS_TYPE":0,"CLASSIFICATION_TYPE":"U","NORAD_CAT_ID":63487,"ELEMENT_SET_NO":999,"REV_AT_EPOCH":5571,"BSTAR":0.00057715,"MEAN_MOTION_DOT":0.00015663,"MEAN_MOTION_DDOT":0},{"OBJECT_NAME":"STARLINK-33828","OBJECT_ID":"2025-071A","EPOCH":"2026-03-27T14:41:55.044960","MEAN_MOTION":15.30202747,"ECCENTRICITY":0.0001095,"INCLINATION":53.159,"RA_OF_ASC_NODE":58.8404,"ARG_OF_PERICENTER":95.9757,"MEAN_ANOMALY":264.1369,"EPHEMERIS_TYPE":0,"CLASSIFICATION_TYPE":"U","NORAD_CAT_ID":63493,"ELEMENT_SET_NO":999,"REV_AT_EPOCH":5546,"BSTAR":0.00071568,"MEAN_MOTION_DOT":0.00020899,"MEAN_MOTION_DDOT":0},{"OBJECT_NAME":"STARLINK-33819","OBJECT_ID":"2025-071B","EPOCH":"2026-03-27T21:02:41.307072","MEAN_MOTION":15.30218443,"ECCENTRICITY":0.0002133,"INCLINATION":53.1588,"RA_OF_ASC_NODE":57.6366,"ARG_OF_PERICENTER":102.7354,"MEAN_ANOMALY":257.3885,"EPHEMERIS_TYPE":0,"CLASSIFICATION_TYPE":"U","NORAD_CAT_ID":63494,"ELEMENT_SET_NO":999,"REV_AT_EPOCH":5550,"BSTAR":0.0011192,"MEAN_MOTION_DOT":0.00032956,"MEAN_MOTION_DDOT":0},{"OBJECT_NAME":"STARLINK-33845","OBJECT_ID":"2025-071C","EPOCH":"2026-03-27T08:02:09.083904","MEAN_MOTION":15.30240546,"ECCENTRICITY":0.0001412,"INCLINATION":53.1594,"RA_OF_ASC_NODE":57.8088,"ARG_OF_PERICENTER":68.1146,"MEAN_ANOMALY":292.0005,"EPHEMERIS_TYPE":0,"CLASSIFICATION_TYPE":"U","NORAD_CAT_ID":63495,"ELEMENT_SET_NO":999,"REV_AT_EPOCH":5545,"BSTAR":0.00070306,"MEAN_MOTION_DOT":0.00020547,"MEAN_MOTION_DDOT":0},{"OBJECT_NAME":"STARLINK-33829","OBJECT_ID":"2025-071D","EPOCH":"2026-03-27T14:41:09.478464","MEAN_MOTION":15.30204238,"ECCENTRICITY":0.0001184,"INCLINATION":53.1588,"RA_OF_ASC_NODE":56.6944,"ARG_OF_PERICENTER":81.3906,"MEAN_ANOMALY":278.7229,"EPHEMERIS_TYPE":0,"CLASSIFICATION_TYPE":"U","NORAD_CAT_ID":63496,"ELEMENT_SET_NO":999,"REV_AT_EPOCH":5545,"BSTAR":0.00095585,"MEAN_MOTION_DOT":0.00028061,"MEAN_MOTION_DDOT":0},{"OBJECT_NAME":"STARLINK-33815","OBJECT_ID":"2025-071E","EPOCH":"2026-03-27T15:06:59.448672","MEAN_MOTION":15.30201308,"ECCENTRICITY":0.0001661,"INCLINATION":53.1599,"RA_OF_ASC_NODE":56.8029,"ARG_OF_PERICENTER":93.0434,"MEAN_ANOMALY":267.0756,"EPHEMERIS_TYPE":0,"CLASSIFICATION_TYPE":"U","NORAD_CAT_ID":63497,"ELEMENT_SET_NO":999,"REV_AT_EPOCH":5551,"BSTAR":0.00066808,"MEAN_MOTION_DOT":0.0001948,"MEAN_MOTION_DDOT":0},{"OBJECT_NAME":"STARLINK-33833","OBJECT_ID":"2025-071F","EPOCH":"2026-03-27T14:54:49.859424","MEAN_MOTION":15.30208546,"ECCENTRICITY":0.0001589,"INCLINATION":53.1596,"RA_OF_ASC_NODE":56.7501,"ARG_OF_PERICENTER":88.7886,"MEAN_ANOMALY":271.3297,"EPHEMERIS_TYPE":0,"CLASSIFICATION_TYPE":"U","NORAD_CAT_ID":63498,"ELEMENT_SET_NO":999,"REV_AT_EPOCH":5551,"BSTAR":0.00050796,"MEAN_MOTION_DOT":0.00014719,"MEAN_MOTION_DDOT":0},{"OBJECT_NAME":"STARLINK-33534","OBJECT_ID":"2025-071G","EPOCH":"2026-03-27T14:48:45.195264","MEAN_MOTION":15.3020588,"ECCENTRICITY":0.0001409,"INCLINATION":53.1598,"RA_OF_ASC_NODE":56.7248,"ARG_OF_PERICENTER":88.5866,"MEAN_ANOMALY":271.5296,"EPHEMERIS_TYPE":0,"CLASSIFICATION_TYPE":"U","NORAD_CAT_ID":63499,"ELEMENT_SET_NO":999,"REV_AT_EPOCH":5549,"BSTAR":0.00085936,"MEAN_MOTION_DOT":0.00025184,"MEAN_MOTION_DDOT":0},{"OBJECT_NAME":"STARLINK-33838","OBJECT_ID":"2025-071H","EPOCH":"2026-03-27T05:00:07.119072","MEAN_MOTION":15.30207215,"ECCENTRICITY":0.00012549,"INCLINATION":53.1591,"RA_OF_ASC_NODE":58.44,"ARG_OF_PERICENTER":95.8552,"MEAN_ANOMALY":264.2591,"EPHEMERIS_TYPE":0,"CLASSIFICATION_TYPE":"U","NORAD_CAT_ID":63500,"ELEMENT_SET_NO":999,"REV_AT_EPOCH":5524,"BSTAR":0.00057997244,"MEAN_MOTION_DOT":0.00016861,"MEAN_MOTION_DDOT":0},{"OBJECT_NAME":"STARLINK-33837","OBJECT_ID":"2025-071J","EPOCH":"2026-03-27T15:16:06.631968","MEAN_MOTION":15.30202899,"ECCENTRICITY":0.0002179,"INCLINATION":53.1605,"RA_OF_ASC_NODE":56.8408,"ARG_OF_PERICENTER":96.0358,"MEAN_ANOMALY":264.0891,"EPHEMERIS_TYPE":0,"CLASSIFICATION_TYPE":"U","NORAD_CAT_ID":63501,"ELEMENT_SET_NO":999,"REV_AT_EPOCH":5545,"BSTAR":0.00083208,"MEAN_MOTION_DOT":0.00024368,"MEAN_MOTION_DDOT":0},{"OBJECT_NAME":"STARLINK-33818","OBJECT_ID":"2025-071K","EPOCH":"2026-03-27T03:21:29.894112","MEAN_MOTION":15.30204886,"ECCENTRICITY":0.00010207,"INCLINATION":53.159,"RA_OF_ASC_NODE":58.7221,"ARG_OF_PERICENTER":127.361,"MEAN_ANOMALY":232.7484,"EPHEMERIS_TYPE":0,"CLASSIFICATION_TYPE":"U","NORAD_CAT_ID":63502,"ELEMENT_SET_NO":999,"REV_AT_EPOCH":5544,"BSTAR":0.0014956015,"MEAN_MOTION_DOT":0.00044207,"MEAN_MOTION_DDOT":0},{"OBJECT_NAME":"STARLINK-33583","OBJECT_ID":"2025-071L","EPOCH":"2026-03-27T08:01:33.040416","MEAN_MOTION":15.30206271,"ECCENTRICITY":0.0001301,"INCLINATION":53.1601,"RA_OF_ASC_NODE":60.6409,"ARG_OF_PERICENTER":89.1046,"MEAN_ANOMALY":271.0104,"EPHEMERIS_TYPE":0,"CLASSIFICATION_TYPE":"U","NORAD_CAT_ID":63503,"ELEMENT_SET_NO":999,"REV_AT_EPOCH":5544,"BSTAR":0.0012212,"MEAN_MOTION_DOT":0.00035991,"MEAN_MOTION_DDOT":0}]
